[{"OBJECT_NAME":"TIANMU-1 21","OBJECT_ID":"2023-208C","EPOCH":"2026-03-09T21:48:13.065120","MEAN_MOTION":15.33041299,"ECCENTRICITY":0.00059807,"INCLINATION":97.4378,"RA_OF_ASC_NODE":187.7048,"ARG_OF_PERICENTER":317.2488,"MEAN_ANOMALY":42.8288,"EPHEMERIS_TYPE":0,"CLASSIFICATION_TYPE":"U","NORAD_CAT_ID":58662,"ELEMENT_SET_NO":999,"REV_AT_EPOCH":12234,"BSTAR":0.00040063782,"MEAN_MOTION_DOT":0.00012722,"MEAN_MOTION_DDOT":0},{"OBJECT_NAME":"STARLINK-34808","OBJECT_ID":"2025-216M","EPOCH":"2026-03-09T23:29:47.050656","MEAN_MOTION":15.30216272,"ECCENTRICITY":0.00016809,"INCLINATION":53.1615,"RA_OF_ASC_NODE":331.1376,"ARG_OF_PERICENTER":133.4265,"MEAN_ANOMALY":226.6876,"EPHEMERIS_TYPE":0,"CLASSIFICATION_TYPE":"U","NORAD_CAT_ID":65745,"ELEMENT_SET_NO":999,"REV_AT_EPOCH":2656,"BSTAR":0.00077027856,"MEAN_MOTION_DOT":0.00022535,"MEAN_MOTION_DDOT":0}]
